ONEWEB-0634             
1 56075U 23043AF  25064.86391072 -.00000194  00000+0 -54957-3 0  9996
2 56075  87.9142 352.5070 0001828  65.4137 294.7183 13.15549249 94823
ONEWEB-0635             
1 56076U 23043AG  25064.85918229  .00000154  00000+0  37560-3 0  9990
2 56076  87.9112 352.5222 0001813  90.6451 269.4887 13.15549064 94851
ONEWEB-0636             
1 56077U 23043AH  25064.85124136  .00000089  00000+0  20115-3 0  9992
2 56077  87.9120 352.5242 0001796  88.4179 271.7156 13.15550532 94830
ONEWEB-0637             
1 56078U 23043AJ  25064.84491683  .00000033  00000+0  53824-4 0  9999
2 56078  87.9139 352.5102 0001518  83.8558 276.2745 13.15546646 94855
ONEWEB-0647             
1 56079U 23043AK  25064.84014751  .00000015  00000+0  66905-5 0  9992
2 56079  87.9137 352.5231 0001935  84.5446 275.5905 13.15551492 94848
ONEWEB-0651             
1 56080U 23043AL  25064.83540741  .00000002  00000+0 -29094-4 0  9990
2 56080  87.9140 352.5090 0001616  88.1582 271.9734 13.15549517 96043
ONEWEB-0718             
1 56081U 23043AM  25064.83063810 -.00000393  00000+0 -10777-2 0  9998
2 56081  87.9139 352.4944 0001739  62.7729 297.3579 13.15549637 94855
ONEWEB-0561             
1 56710U 23068A   25064.86930659  .00000099  00000+0  21088-3 0  9990
2 56710  87.9310   7.6704 0002023  98.2193 261.9170 13.20772046 87689
